QIANFAN-9               
1 60387U 24140J   25328.09426338  .00000064  00000+0  80807-4 0  9996
2 60387  88.9745 301.2676 0014302 250.5672 109.3934 13.50977910 64819
QIANFAN-10              
1 60388U 24140K   25328.02439045  .00000058  00000+0  71611-4 0  9995
2 60388  88.9755 300.6200 0013072 224.7973 135.2123 13.50978576 64937
QIANFAN-11              
1 60389U 24140L   25327.98736562  .00000049  00000+0  57679-4 0  9992
2 60389  88.9680 301.2252 0012333 250.3894 109.5926 13.50974736 64585
QIANFAN-12              
1 60390U 24140M   25328.00787358  .00000071  00000+0  91569-4 0  9998
2 60390  88.9724 301.2583 0011131 259.8703 100.1193 13.50975514 64714
QIANFAN-13              
1 60391U 24140N   25327.97907829  .00000055  00000+0  66228-4 0  9997
2 60391  88.9736 301.3589 0010961 263.1143  96.8761 13.50975930 64737
QIANFAN-14              
1 60392U 24140P   25328.00366366  .00000062  00000+0  76919-4 0  9994
2 60392  88.9715 301.2579 0014646 262.7930  97.1557 13.50975645 64747
QIANFAN-15              
1 60393U 24140Q   25328.01193503  .00000067  00000+0  85760-4 0  9996
2 60393  88.9738 301.2091 0010485 246.5553 113.4496 13.50974347 64731
QIANFAN-16              
1 60394U 24140R   25327.99973878  .00000060  00000+0  74514-4 0  9992
2 60394  88.9741 301.3299 0012590 267.3966  92.5744 13.50974514 64644
